{
"type": "FeatureCollection",
"generator": "overpass-turbo",
"copyright": "The data included in this document is from www.openstreetmap.org. The data is made available under ODbL.",
"timestamp": "2024-02-29T13:36:05Z",
"name": "Feuerwachen",
"features": [
{ "type": "Feature", "id": "way/27129981", "properties": { "@id": "way/27129981", "addr:city": "Hohen Neuendorf", "addr:country": "DE", "addr:housenumber": "8", "addr:postcode": "16562", "addr:street": "Triftstraße", "addr:suburb": "Bergfelde", "amenity": "fire_station", "building": "yes", "Ortswehrführer/-in": "#f4e7c6", "stellv. Ortswehrführer/-in": "1", "email": "info@feuerwehr-bergfelde.de", "fax": "+493303213581", "image": "https://www.feuerwehr-bergfelde.de/images/wache-02.JPG", "name": "Freiwillige Feuerwehr Bergfelde", "phone": "+493303404350", "roof:colour": "#c06a48", "roof:shape": "gabled", "website": "https://www.feuerwehr-bergfelde.de" }, "geometry": { "type": "Polygon", "coordinates": [ [ [ 13.3228675, 52.672983 ], [ 13.3228134, 52.6729714 ], [ 13.3226671, 52.6729402 ], [ 13.3225575, 52.6729168 ], [ 13.3224387, 52.6728914 ], [ 13.3224119, 52.6728857 ], [ 13.3224194, 52.6728729 ], [ 13.3224743, 52.6727783 ], [ 13.3227801, 52.6728436 ], [ 13.3228506, 52.6727222 ], [ 13.3229795, 52.6727497 ], [ 13.3229169, 52.6728576 ], [ 13.3228991, 52.6728538 ], [ 13.3228918, 52.6728663 ], [ 13.3229305, 52.6728746 ], [ 13.3228675, 52.672983 ] ] ] } },
{ "type": "Feature", "id": "way/29404801", "properties": { "@id": "way/29404801", "addr:city": "Ahrensfelde", "addr:country": "DE", "addr:housenumber": "1", "addr:postcode": "16356", "addr:street": "Alte Schulstraße", "addr:suburb": "Lindenberg", "amenity": "fire_station", "building": "yes", "name": "Freiwillige Feuerwehr" }, "geometry": { "type": "Polygon", "coordinates": [ [ [ 13.5215343, 52.6009447 ], [ 13.5215942, 52.6007304 ], [ 13.5217706, 52.6007486 ], [ 13.5217553, 52.6008033 ], [ 13.5219111, 52.6008194 ], [ 13.5218813, 52.6009258 ], [ 13.5218023, 52.6009177 ], [ 13.5217247, 52.6009097 ], [ 13.5217099, 52.6009628 ], [ 13.5215962, 52.6009511 ], [ 13.5215343, 52.6009447 ] ] ] } },
{ "type": "Feature", "id": "way/29978455", "properties": { "@id": "way/29978455", "addr:city": "Berlin", "addr:country": "DE", "addr:housenumber": "55", "addr:postcode": "13437", "addr:street": "Roedernallee", "addr:suburb": "Reinickendorf", "amenity": "fire_station", "name": "Berufsfeuerwache Wittenau", "ref": "2200" }, "geometry": { "type": "Polygon", "coordinates": [ [ [ 13.3406186, 52.5875281 ], [ 13.3409705, 52.5870832 ], [ 13.3420844, 52.5874019 ], [ 13.3417453, 52.5878428 ], [ 13.3406186, 52.5875281 ] ] ] } },
{ "type": "Feature", "id": "way/38164401", "properties": { "@id": "way/38164401", "addr:city": "Wandlitz", "addr:housenumber": "19", "addr:postcode": "16348", "addr:street": "Prenzlauer Straße", "addr:suburb": "Basdorf", "amenity": "fire_station", "building": "yes", "emergency": "yes", "name": "Ortsfeuerwehr Basdorf", "operator": "Feuerwehr Wandlitz" }, "geometry": { "type": "Polygon", "coordinates": [ [ [ 13.4352143, 52.7257093 ], [ 13.4351378, 52.725782 ], [ 13.4349946, 52.7257347 ], [ 13.4349561, 52.7257721 ], [ 13.4348237, 52.7257221 ], [ 13.4349292, 52.7256067 ], [ 13.4352143, 52.7257093 ] ] ] } },
{ "type": "Feature", "id": "way/39490563", "properties": { "@id": "way/39490563", "amenity": "fire_station", "building": "yes", "name": "Freiwillige Feuerwehr Strausberg" }, "geometry": { "type": "Polygon", "coordinates": [ [ [ 13.8882322, 52.5785408 ], [ 13.8882274, 52.5785426 ], [ 13.8882236, 52.5785388 ], [ 13.8882818, 52.5785175 ], [ 13.8882451, 52.5784806 ], [ 13.8882084, 52.5785001 ], [ 13.8880775, 52.5784089 ], [ 13.8883244, 52.5782778 ], [ 13.8883356, 52.5782896 ], [ 13.8883598, 52.5782811 ], [ 13.8883451, 52.5782668 ], [ 13.8884017, 52.5782368 ], [ 13.8885322, 52.5783282 ], [ 13.8883491, 52.5784254 ], [ 13.8883978, 52.5784748 ], [ 13.8885545, 52.5784175 ], [ 13.8887292, 52.5785945 ], [ 13.8887239, 52.5785964 ], [ 13.8888336, 52.5787075 ], [ 13.8888394, 52.5787057 ], [ 13.888868, 52.5787349 ], [ 13.8887076, 52.5787937 ], [ 13.8887163, 52.5788031 ], [ 13.8885463, 52.5788655 ], [ 13.8885426, 52.5788615 ], [ 13.8885477, 52.5788599 ], [ 13.8882322, 52.5785408 ] ] ] } },
{ "type": "Feature", "id": "way/49418015", "properties": { "@id": "way/49418015", "addr:city": "Panketal", "addr:country": "DE", "addr:housenumber": "22", "addr:postcode": "16341", "addr:street": "Neckarstraße", "addr:suburb": "Zepernick", "amenity": "fire_station", "building": "yes", "name": "Freiwillige Feuerwehr Zepernick" }, "geometry": { "type": "Polygon", "coordinates": [ [ [ 13.5430154, 52.6554 ], [ 13.5431752, 52.6553591 ], [ 13.5432957, 52.6555324 ], [ 13.5434539, 52.6554919 ], [ 13.5435384, 52.6556135 ], [ 13.5432204, 52.6556949 ], [ 13.5431088, 52.6555428 ], [ 13.5430154, 52.6554 ] ] ] } },
{ "type": "Feature", "id": "way/52330946", "properties": { "@id": "way/52330946", "amenity": "fire_station", "building": "yes", "Ortswehrführer/-in": "#97a1b3", "stellv. Ortswehrführer/-in": "1", "name": "Freiwillige Feuerwehr Lübars", "roof:colour": "#272e23", "roof:levels": "1", "roof:shape": "gabled" }, "geometry": { "type": "Polygon", "coordinates": [ [ [ 13.3581089, 52.6209501 ], [ 13.3580304, 52.6210683 ], [ 13.357843, 52.6210224 ], [ 13.3578605, 52.6209961 ], [ 13.3578324, 52.6209893 ], [ 13.3578538, 52.6209571 ], [ 13.3578812, 52.6209638 ], [ 13.3579218, 52.6209026 ], [ 13.3579934, 52.6209201 ], [ 13.3579887, 52.6209272 ], [ 13.3580443, 52.6209408 ], [ 13.358048, 52.6209352 ], [ 13.3581089, 52.6209501 ] ] ] } },
{ "type": "Feature", "id": "way/56456892", "properties": { "@id": "way/56456892", "addr:city": "Mühlenbecker Land", "addr:country": "DE", "addr:housenumber": "3", "addr:postcode": "16552", "addr:street": "Franz-Schmidt-Straße", "addr:suburb": "Schildow", "amenity": "fire_station", "building": "public", "stellv. Ortswehrführer/-in": "2", "email": "verein@feuerwehr-schildow.de", "name": "Freiwillige Feuerwehr Schildow", "phone": "+49 33056 23671", "roof:levels": "0", "roof:shape": "gabled", "website": "http://feuerwehr-schildow.de/" }, "geometry": { "type": "Polygon", "coordinates": [ [ [ 13.3738783, 52.6356424 ], [ 13.3738339, 52.6354924 ], [ 13.3742044, 52.635452 ], [ 13.3742488, 52.635602 ], [ 13.3738783, 52.6356424 ] ] ] } },
{ "type": "Feature", "id": "way/58699648", "properties": { "@id": "way/58699648", "addr:city": "Berlin", "addr:country": "DE", "addr:housenumber": "14", "addr:postcode": "13159", "addr:street": "Hauptstraße", "addr:suburb": "Blankenfelde", "amenity": "fire_station", "building": "yes", "email": "info@ff-blankenfelde.de", "fax": "+4930 47470006", "name": "Freiwillige Feuerwehr Blankenfelde", "phone": "+4930 47470006", "ref": "2630", "source": "Geoportal Berlin / Hausumringe", "website": "http://www.ff-blankenfelde.de", "wikidata": "Q107538351" }, "geometry": { "type": "Polygon", "coordinates": [ [ [ 13.387464, 52.6177337 ], [ 13.3874993, 52.6176809 ], [ 13.3874298, 52.6176638 ], [ 13.3874536, 52.6176282 ], [ 13.3877769, 52.6177078 ], [ 13.3877178, 52.6177962 ], [ 13.387464, 52.6177337 ] ] ] } },
{ "type": "Feature", "id": "way/70102460", "properties": { "@id": "way/70102460", "addr:city": "Oranienburg", "addr:housenumber": "49", "addr:postcode": "16515", "addr:street": "Berliner Weg", "addr:suburb": "Schmachtenhagen", "amenity": "fire_station", "building": "yes", "name": "Freiwillige Feuerwehr Wensickendorf" }, "geometry": { "type": "Polygon", "coordinates": [ [ [ 13.3718812, 52.7520143 ], [ 13.3718624, 52.7520966 ], [ 13.3715636, 52.7520716 ], [ 13.3715824, 52.7519893 ], [ 13.3718812, 52.7520143 ] ] ] } },
{ "type": "Feature", "id": "way/76937580", "properties": { "@id": "way/76937580", "addr:city": "Oranienburg", "addr:country": "DE", "addr:housenumber": "53B", "addr:postcode": "16515", "addr:street": "Alte Dorfstraße", "addr:suburb": "Zehlendorf", "amenity": "fire_station", "building": "yes", "stellv. Ortswehrführer/-in": "1", "name": "Freiwillige Feuerwehr Zehlendorf", "roof:levels": "0", "roof:material": "roof_tiles", "roof:shape": "gabled" }, "geometry": { "type": "Polygon", "coordinates": [ [ [ 13.3876704, 52.7839706 ], [ 13.3876286, 52.7840726 ], [ 13.3874979, 52.7840541 ], [ 13.3875357, 52.7839502 ], [ 13.3876704, 52.7839706 ] ] ] } },
{ "type": "Feature", "id": "way/89080484", "properties": { "@id": "way/89080484", "addr:city": "Zehdenick", "addr:housenumber": "3", "addr:postcode": "16792", "addr:street": "Parkstraße", "amenity": "fire_station", "building": "yes", "name": "FF Zehdenick" }, "geometry": { "type": "Polygon", "coordinates": [ [ [ 13.3404952, 52.9769375 ], [ 13.340037, 52.9765769 ], [ 13.3401684, 52.9765164 ], [ 13.3402774, 52.9766022 ], [ 13.3403267, 52.9765795 ], [ 13.3406759, 52.9768542 ], [ 13.3404952, 52.9769375 ] ] ] } },
{ "type": "Feature", "id": "way/96822239", "properties": { "@id": "way/96822239", "addr:housenumber": "9", "addr:street": "Brodowiner Dorfstraße", "amenity": "fire_station", "building": "yes", "name": "Freiwillige Feuerwehr Brodowin" }, "geometry": { "type": "Polygon", "coordinates": [ [ [ 13.961535, 52.9123471 ], [ 13.9615215, 52.9123087 ], [ 13.9615477, 52.9123054 ], [ 13.9615401, 52.9122838 ], [ 13.9615008, 52.9122888 ], [ 13.9614913, 52.9122618 ], [ 13.9615255, 52.9122574 ], [ 13.9615173, 52.912234 ], [ 13.9616905, 52.9122119 ], [ 13.9617293, 52.9123222 ], [ 13.961535, 52.9123471 ] ] ] } },
{ "type": "Feature", "id": "way/101446844", "properties": { "@id": "way/101446844", "addr:city": "Schorfheide", "addr:country": "DE", "addr:housenumber": "14", "addr:postcode": "16244", "addr:street": "Steinfurter Straße", "addr:suburb": "Lichterfelde", "amenity": "fire_station", "building": "yes", "name": "Freiwillige Feuerwehr Lichterfelde" }, "geometry": { "type": "Polygon", "coordinates": [ [ [ 13.7441277, 52.8670966 ], [ 13.7441537, 52.8669654 ], [ 13.744434, 52.8669856 ], [ 13.7444081, 52.8671168 ], [ 13.7441277, 52.8670966 ] ] ] } },
{ "type": "Feature", "id": "way/115712873", "properties": { "@id": "way/115712873", "amenity": "fire_station", "building": "yes", "name": "Freiwillige Feuerwehr Niederschönhausen (2610)", "ref": "2610", "wikidata": "Q107538361", "wikimedia_commons": "Category:Volunteer fire department in Berlin-Niederschönhausen" }, "geometry": { "type": "Polygon", "coordinates": [ [ [ 13.4072091, 52.582009 ], [ 13.4071818, 52.5820412 ], [ 13.4070963, 52.5820218 ], [ 13.4071141, 52.5820001 ], [ 13.4069784, 52.5819873 ], [ 13.4070112, 52.5818728 ], [ 13.4074372, 52.5819146 ], [ 13.4074032, 52.5820272 ], [ 13.4073508, 52.5820223 ], [ 13.4072091, 52.582009 ] ] ] } },
{ "type": "Feature", "id": "way/129115254", "properties": { "@id": "way/129115254", "addr:city": "Falkenberg", "addr:country": "DE", "addr:housenumber": "30", "addr:postcode": "16259", "addr:street": "Eberswalder Straße", "amenity": "fire_station", "building": "yes", "name": "Feuerwehr" }, "geometry": { "type": "Polygon", "coordinates": [ [ [ 13.957431, 52.8052641 ], [ 13.957299, 52.8052147 ], [ 13.9571832, 52.8051714 ], [ 13.9571671, 52.8051654 ], [ 13.9572926, 52.8050427 ], [ 13.9575565, 52.8051414 ], [ 13.957431, 52.8052641 ] ] ] } },
{ "type": "Feature", "id": "way/141648147", "properties": { "@id": "way/141648147", "addr:city": "Werneuchen", "addr:housenumber": "18a", "addr:postcode": "16356", "addr:street": "Ernst-Thälmann-Straße", "amenity": "fire_station", "building": "yes", "name": "Freiwillige Feuerwehr Hirschfelde" }, "geometry": { "type": "Polygon", "coordinates": [ [ [ 13.7999434, 52.636639 ], [ 13.7997963, 52.6365206 ], [ 13.7999462, 52.636452 ], [ 13.8000933, 52.6365704 ], [ 13.7999434, 52.636639 ] ] ] } },
{ "type": "Feature", "id": "way/161165416", "properties": { "@id": "way/161165416", "addr:city": "Wandlitz", "addr:housenumber": "46a", "addr:postcode": "16348", "addr:street": "Dorfstraße", "addr:suburb": "Stolzenhagen", "amenity": "fire_station", "building": "yes" }, "geometry": { "type": "Polygon", "coordinates": [ [ [ 13.4395066, 52.7781812 ], [ 13.4395906, 52.7782553 ], [ 13.4394255, 52.7783238 ], [ 13.4393415, 52.7782497 ], [ 13.4395066, 52.7781812 ] ] ] } },
{ "type": "Feature", "id": "way/164089785", "properties": { "@id": "way/164089785", "addr:housenumber": "24a", "addr:street": "Berliner Straße", "addr:suburb": "Leuenberg", "amenity": "fire_station", "building": "yes", "name": "Freiwillige Feuerwehr Leuenberg" }, "geometry": { "type": "Polygon", "coordinates": [ [ [ 13.8864009, 52.7032677 ], [ 13.8864819, 52.7031051 ], [ 13.8866286, 52.7031318 ], [ 13.8865693, 52.7032489 ], [ 13.8865461, 52.7032948 ], [ 13.8864009, 52.7032677 ] ] ] } },
{ "type": "Feature", "id": "way/176860579", "properties": { "@id": "way/176860579", "addr:city": "Liepe", "addr:country": "DE", "addr:housenumber": "3a", "addr:postcode": "16248", "addr:street": "Am Sportplatz", "amenity": "fire_station", "building": "yes" }, "geometry": { "type": "Polygon", "coordinates": [ [ [ 13.9536207, 52.8567811 ], [ 13.9538155, 52.8566773 ], [ 13.9541325, 52.8568943 ], [ 13.9540588, 52.8569336 ], [ 13.9540066, 52.8568978 ], [ 13.9539664, 52.8569192 ], [ 13.9538259, 52.8568231 ], [ 13.953745, 52.8568662 ], [ 13.9536207, 52.8567811 ] ] ] } },
{ "type": "Feature", "id": "way/208535363", "properties": { "@id": "way/208535363", "addr:city": "Ahrensfelde", "addr:country": "DE", "addr:housenumber": "51", "addr:postcode": "16356", "addr:street": "Dorfstraße", "amenity": "fire_station", "building": "yes", "name": "Freiwillige Feuerwehr Ahrensfelde", "wikidata": "Q113508648", "wikimedia_commons": "Category:Freiwillige Feuerwehr Ahrensfelde" }, "geometry": { "type": "Polygon", "coordinates": [ [ [ 13.5791058, 52.5767632 ], [ 13.5791683, 52.5766905 ], [ 13.5790508, 52.5766529 ], [ 13.5791418, 52.5765479 ], [ 13.5793338, 52.5766099 ], [ 13.5793373, 52.5766059 ], [ 13.5794315, 52.5766366 ], [ 13.579428, 52.5766405 ], [ 13.5795026, 52.5766645 ], [ 13.5794117, 52.5767694 ], [ 13.5793369, 52.5767451 ], [ 13.5792749, 52.576818 ], [ 13.5791058, 52.5767632 ] ] ] } },
{ "type": "Feature", "id": "way/220217821", "properties": { "@id": "way/220217821", "addr:city": "Falkenberg", "addr:housenumber": "12", "addr:street": "Hauptstraße", "addr:suburb": "Kruge/Gersdorf", "amenity": "fire_station", "name": "Ffw Kruge und Gersdorf" }, "geometry": { "type": "Polygon", "coordinates": [ [ [ 13.8774462, 52.7574205 ], [ 13.8774293, 52.7573128 ], [ 13.8776781, 52.7572985 ], [ 13.8776949, 52.7574063 ], [ 13.8774462, 52.7574205 ] ] ] } },
{ "type": "Feature", "id": "way/221474749", "properties": { "@id": "way/221474749", "amenity": "fire_station", "building": "yes", "stellv. Ortswehrführer/-in": "3", "Jugendwart/-in": "brick", "roof:colour": "#ffb5b5", "roof:height": "2", "roof:orientation": "across", "roof:shape": "gabled" }, "geometry": { "type": "Polygon", "coordinates": [ [ [ 13.4394143, 52.6790475 ], [ 13.4394069, 52.679048 ], [ 13.4393992, 52.6790058 ], [ 13.4394447, 52.6790028 ], [ 13.4394506, 52.6790024 ], [ 13.4394549, 52.679026 ], [ 13.4394583, 52.6790446 ], [ 13.4394526, 52.679045 ], [ 13.4394143, 52.6790475 ] ] ] } },
{ "type": "Feature", "id": "way/222290190", "properties": { "@id": "way/222290190", "addr:city": "Berlin", "addr:country": "DE", "addr:housenumber": "3", "addr:postcode": "13125", "addr:street": "Pölnitzweg", "addr:suburb": "Buch", "amenity": "fire_station", "building": "fire_station", "name": "Freiwillige Feuerwehr Buch", "ref": "2710", "short_name": "FF Buch", "wikidata": "Q107538353" }, "geometry": { "type": "Polygon", "coordinates": [ [ [ 13.5012466, 52.6378253 ], [ 13.5015839, 52.6375757 ], [ 13.5017045, 52.6376357 ], [ 13.5015263, 52.6377676 ], [ 13.5015782, 52.6377934 ], [ 13.5014192, 52.6379111 ], [ 13.5012466, 52.6378253 ] ] ] } },
{ "type": "Feature", "id": "way/233115465", "properties": { "@id": "way/233115465", "addr:city": "Schorfheide", "addr:housenumber": "52", "addr:postcode": "16244", "addr:street": "Ernst-Thälmann-Straße", "addr:suburb": "Groß Schönebeck", "amenity": "fire_station", "building": "yes", "name": "Freilwillige Feuerwehr Groß Schönebeck" }, "geometry": { "type": "Polygon", "coordinates": [ [ [ 13.5338919, 52.9078632 ], [ 13.5337575, 52.9079622 ], [ 13.5334729, 52.9078217 ], [ 13.5336073, 52.9077227 ], [ 13.5338919, 52.9078632 ] ] ] } },
{ "type": "Feature", "id": "way/234156576", "properties": { "@id": "way/234156576", "amenity": "fire_station", "building": "yes" }, "geometry": { "type": "Polygon", "coordinates": [ [ [ 13.9896455, 52.6752718 ], [ 13.989707, 52.6752405 ], [ 13.9897863, 52.6752997 ], [ 13.9897249, 52.6753299 ], [ 13.9896455, 52.6752718 ] ] ] } },
{ "type": "Feature", "id": "way/236834423", "properties": { "@id": "way/236834423", "addr:city": "Mühlenbecker Land", "addr:country": "DE", "addr:housenumber": "21", "addr:postcode": "16567", "addr:street": "Hauptstraße", "addr:suburb": "Mühlenbeck", "amenity": "fire_station", "building": "yes" }, "geometry": { "type": "Polygon", "coordinates": [ [ [ 13.3781804, 52.6646434 ], [ 13.3780208, 52.664676 ], [ 13.3779711, 52.6646875 ], [ 13.3779053, 52.6647027 ], [ 13.3778822, 52.6647081 ], [ 13.3778778, 52.6646989 ], [ 13.3778128, 52.6645624 ], [ 13.3781055, 52.6644988 ], [ 13.3781804, 52.6646434 ] ] ] } },
{ "type": "Feature", "id": "way/242563040", "properties": { "@id": "way/242563040", "addr:city": "Falkenberg", "addr:housenumber": "1", "addr:street": "Freienwalder Weg", "amenity": "fire_station", "building": "yes", "name": "FF Dannenberg" }, "geometry": { "type": "Polygon", "coordinates": [ [ [ 13.9570379, 52.772851 ], [ 13.9570873, 52.7727455 ], [ 13.957325, 52.7727863 ], [ 13.9572755, 52.7728918 ], [ 13.9570379, 52.772851 ] ] ] } },
{ "type": "Feature", "id": "way/245225622", "properties": { "@id": "way/245225622", "addr:city": "Prötzel", "addr:country": "DE", "addr:housenumber": "20b", "addr:postcode": "15345", "addr:street": "Strausberger Straße", "amenity": "fire_station", "building": "commercial", "contact:phone": "+49 33436 15295", "name": "FF Prötzel" }, "geometry": { "type": "Polygon", "coordinates": [ [ [ 13.984647, 52.6356317 ], [ 13.9847318, 52.6355268 ], [ 13.9850282, 52.6356154 ], [ 13.9849434, 52.6357204 ], [ 13.984647, 52.6356317 ] ] ] } },
{ "type": "Feature", "id": "way/252121207", "properties": { "@id": "way/252121207", "addr:city": "Angermünde", "addr:housenumber": "34", "addr:street": "Bölkendorfer Straße", "amenity": "fire_station", "building": "yes" }, "geometry": { "type": "Polygon", "coordinates": [ [ [ 13.995559, 52.9495083 ], [ 13.9954428, 52.9493661 ], [ 13.9957367, 52.9492788 ], [ 13.9959144, 52.9494963 ], [ 13.9957558, 52.9495433 ], [ 13.9956943, 52.9494681 ], [ 13.995559, 52.9495083 ] ] ] } },
{ "type": "Feature", "id": "way/256960081", "properties": { "@id": "way/256960081", "amenity": "fire_station", "building": "house" }, "geometry": { "type": "Polygon", "coordinates": [ [ [ 13.5748923, 52.6259548 ], [ 13.5749278, 52.6257767 ], [ 13.5751009, 52.6257894 ], [ 13.5750655, 52.6259675 ], [ 13.5748923, 52.6259548 ] ] ] } },
{ "type": "Feature", "id": "way/267404285", "properties": { "@id": "way/267404285", "addr:city": "Werneuchen", "addr:housenumber": "8a", "addr:street": "Wesendahler Straße", "amenity": "fire_station", "building": "yes", "name": "Freiwillige Feuerwehr Werneuchen" }, "geometry": { "type": "Polygon", "coordinates": [ [ [ 13.741069, 52.6281541 ], [ 13.741453, 52.6280498 ], [ 13.7414752, 52.62808 ], [ 13.7416027, 52.6280453 ], [ 13.7416451, 52.6281029 ], [ 13.7416217, 52.6281093 ], [ 13.7417618, 52.6282993 ], [ 13.7416314, 52.6283347 ], [ 13.7415181, 52.6281811 ], [ 13.7411605, 52.6282782 ], [ 13.741069, 52.6281541 ] ] ] } },
{ "type": "Feature", "id": "way/277268822", "properties": { "@id": "way/277268822", "addr:city": "Angermünde", "addr:housenumber": "58", "addr:street": "Zum Dorfanger", "amenity": "fire_station", "building": "yes", "name": "Feuerwehr Schmargendorf" }, "geometry": { "type": "Polygon", "coordinates": [ [ [ 13.9587595, 52.9809598 ], [ 13.9588543, 52.9811046 ], [ 13.9586916, 52.9811432 ], [ 13.9585968, 52.9809984 ], [ 13.9587595, 52.9809598 ] ] ] } },
{ "type": "Feature", "id": "way/290620850", "properties": { "@id": "way/290620850", "addr:city": "Berlin", "addr:country": "DE", "addr:housenumber": "24", "addr:postcode": "13467", "addr:street": "Heinsestraße", "addr:suburb": "Hermsdorf", "amenity": "fire_station", "name": "Stützpunktwache Hermsdorf (2300) Freiwillige Feuerwehr Hermsdorf (2301)", "operator": "Berliner Feuerwehr", "operator:wikidata": "Q821517", "ref": "2301" }, "geometry": { "type": "Polygon", "coordinates": [ [ [ 13.308314, 52.6157079 ], [ 13.3089263, 52.6151459 ], [ 13.3095569, 52.6154 ], [ 13.3089373, 52.6159601 ], [ 13.308314, 52.6157079 ] ] ] } },
{ "type": "Feature", "id": "way/308209346", "properties": { "@id": "way/308209346", "addr:city": "Schorfheide", "addr:housenumber": "1a", "addr:postcode": "16244", "addr:street": "Eberswalder Chaussee", "amenity": "fire_station", "building": "yes", "name": "Freiwillige Feuerwehr Eichhorst" }, "geometry": { "type": "Polygon", "coordinates": [ [ [ 13.6393608, 52.8916175 ], [ 13.6393533, 52.8914541 ], [ 13.6397041, 52.8914483 ], [ 13.6397115, 52.8916117 ], [ 13.6393608, 52.8916175 ] ] ] } },
{ "type": "Feature", "id": "way/316565542", "properties": { "@id": "way/316565542", "addr:city": "Chorin", "addr:country": "DE", "addr:housenumber": "40", "addr:postcode": "16230", "addr:street": "Seestraße", "addr:suburb": "Sandkrug", "amenity": "fire_station", "building": "yes", "stellv. Ortswehrführer/-in": "1", "roof:colour": "grey", "roof:height": "2", "roof:orientation": "along", "roof:shape": "gabled" }, "geometry": { "type": "Polygon", "coordinates": [ [ [ 13.8736776, 52.8838908 ], [ 13.8737497, 52.8838516 ], [ 13.8738837, 52.8839412 ], [ 13.8738116, 52.8839804 ], [ 13.8736776, 52.8838908 ] ] ] } },
{ "type": "Feature", "id": "way/320250485", "properties": { "@id": "way/320250485", "addr:city": "Wandlitz", "addr:housenumber": "1a", "addr:postcode": "16348", "addr:street": "Bahnhofstraße", "addr:suburb": "Klosterfelde", "amenity": "fire_station", "building": "yes", "name": "Freiwillige Feuerwehr Klosterfelde" }, "geometry": { "type": "Polygon", "coordinates": [ [ [ 13.4811583, 52.7913186 ], [ 13.4811698, 52.7911919 ], [ 13.4815243, 52.7912038 ], [ 13.4815127, 52.7913305 ], [ 13.4811583, 52.7913186 ] ] ] } },
{ "type": "Feature", "id": "way/328590452", "properties": { "@id": "way/328590452", "addr:housenumber": "8", "addr:street": "Mittelreihe", "amenity": "fire_station", "building": "yes", "name": "Freiwillige Feuerwehr Chorin" }, "geometry": { "type": "Polygon", "coordinates": [ [ [ 13.8718145, 52.9022615 ], [ 13.8716981, 52.9022898 ], [ 13.871656, 52.902227 ], [ 13.8717723, 52.9021986 ], [ 13.8718145, 52.9022615 ] ] ] } },
{ "type": "Feature", "id": "way/340270524", "properties": { "@id": "way/340270524", "addr:housenumber": "1", "addr:street": "Angergang", "amenity": "fire_station", "name": "Freiwillige Feuerwehr Bernau" }, "geometry": { "type": "Polygon", "coordinates": [ [ [ 13.5851317, 52.6763533 ], [ 13.5850355, 52.6760458 ], [ 13.585069, 52.6759703 ], [ 13.5851299, 52.6758634 ], [ 13.5855696, 52.6759483 ], [ 13.5855976, 52.6758944 ], [ 13.585912, 52.6759509 ], [ 13.5859749, 52.6759619 ], [ 13.5861387, 52.6759906 ], [ 13.5861088, 52.6760534 ], [ 13.5859993, 52.6762836 ], [ 13.5859354, 52.676418 ], [ 13.5855519, 52.676351 ], [ 13.5852817, 52.6763417 ], [ 13.5851317, 52.6763533 ] ] ] } },
{ "type": "Feature", "id": "way/358932219", "properties": { "@id": "way/358932219", "amenity": "fire_station", "building": "yes", "name": "Freiwillige Feuerwehr Altenhof" }, "geometry": { "type": "Polygon", "coordinates": [ [ [ 13.7122039, 52.9125464 ], [ 13.7121858, 52.912572 ], [ 13.7121395, 52.9125596 ], [ 13.7121582, 52.9125342 ], [ 13.7120766, 52.9125115 ], [ 13.712113, 52.9124611 ], [ 13.7120536, 52.9124452 ], [ 13.7120873, 52.9123995 ], [ 13.7121791, 52.9124239 ], [ 13.7121883, 52.9124117 ], [ 13.7123337, 52.9124506 ], [ 13.7122543, 52.9125591 ], [ 13.7122039, 52.9125464 ] ] ] } },
{ "type": "Feature", "id": "way/372765708", "properties": { "@id": "way/372765708", "amenity": "fire_station", "name": "Freiwillige Feuerwehr Buchholz", "operator": "Berliner Feuerwehr", "operator:wikidata": "Q821517", "operator:wikipedia": "de:Berliner Feuerwehr", "ref": "2620" }, "geometry": { "type": "Polygon", "coordinates": [ [ [ 13.4347512, 52.6072578 ], [ 13.4346646, 52.6069857 ], [ 13.4349517, 52.6069481 ], [ 13.4364584, 52.6067627 ], [ 13.4364878, 52.6070606 ], [ 13.4347512, 52.6072578 ] ] ] } },
{ "type": "Feature", "id": "way/376348717", "properties": { "@id": "way/376348717", "addr:city": "Niederfinow", "addr:housenumber": "4", "addr:postcode": "16248", "addr:street": "Atomill", "amenity": "fire_station", "building": "yes", "name": "Feuerwehrhaus", "operator": "Freiwillige Feuerwehr Niederfinow", "website": "https://amtsfeuerwehr-b-c-o.de/ortsfeuerwehren/niederfinow/" }, "geometry": { "type": "Polygon", "coordinates": [ [ [ 13.9294518, 52.8325027 ], [ 13.9296441, 52.8324712 ], [ 13.9296676, 52.8325236 ], [ 13.9294754, 52.8325551 ], [ 13.9294518, 52.8325027 ] ] ] } },
{ "type": "Feature", "id": "way/389281837", "properties": { "@id": "way/389281837", "addr:city": "Oranienburg", "addr:housenumber": "33", "addr:postcode": "16515", "addr:street": "Schmachtenhagener Dorfstraße", "addr:suburb": "Schmachtenhagen", "amenity": "fire_station", "building": "yes" }, "geometry": { "type": "Polygon", "coordinates": [ [ [ 13.3273147, 52.7726794 ], [ 13.3274813, 52.7726484 ], [ 13.3275282, 52.7727407 ], [ 13.3273237, 52.7727787 ], [ 13.3272768, 52.7726865 ], [ 13.3273147, 52.7726794 ] ] ] } },
{ "type": "Feature", "id": "way/431861792", "properties": { "@id": "way/431861792", "amenity": "fire_station", "barrier": "fence" }, "geometry": { "type": "Polygon", "coordinates": [ [ [ 13.7506225, 52.8380955 ], [ 13.7504954, 52.8392621 ], [ 13.750173, 52.8392542 ], [ 13.750147, 52.8393408 ], [ 13.749411, 52.8393171 ], [ 13.7494012, 52.8392621 ], [ 13.7493263, 52.8392109 ], [ 13.7492742, 52.839203 ], [ 13.74931, 52.8390712 ], [ 13.749437, 52.8388883 ], [ 13.7495868, 52.8386994 ], [ 13.7497073, 52.8385539 ], [ 13.7497236, 52.8384516 ], [ 13.7497138, 52.8383001 ], [ 13.7497138, 52.8380443 ], [ 13.7497925, 52.838045 ], [ 13.7498605, 52.8380456 ], [ 13.750193, 52.8380592 ], [ 13.7504433, 52.8380719 ], [ 13.7505688, 52.8380884 ], [ 13.7506225, 52.8380955 ] ] ] } },
{ "type": "Feature", "id": "way/435886826", "properties": { "@id": "way/435886826", "addr:city": "Werneuchen", "addr:housenumber": "20", "addr:street": "Dorfstraße", "amenity": "fire_station", "building": "yes", "name": "Freiwillige Feuerwehr Krummensee" }, "geometry": { "type": "Polygon", "coordinates": [ [ [ 13.6926245, 52.5959347 ], [ 13.6925035, 52.5958748 ], [ 13.6926757, 52.5957464 ], [ 13.6927968, 52.5958062 ], [ 13.6926245, 52.5959347 ] ] ] } },
{ "type": "Feature", "id": "way/435911935", "properties": { "@id": "way/435911935", "addr:city": "Klosterdorf", "addr:housenumber": "11a", "addr:postcode": "15377", "addr:street": "Straße des Friedens", "amenity": "fire_station", "building": "yes", "name": "Freiwillige Feuerwehr Klosterdorf" }, "geometry": { "type": "Polygon", "coordinates": [ [ [ 13.9493996, 52.5908481 ], [ 13.9494569, 52.590771 ], [ 13.9496684, 52.5908258 ], [ 13.9496125, 52.5909047 ], [ 13.9493996, 52.5908481 ] ] ] } },
{ "type": "Feature", "id": "way/466886028", "properties": { "@id": "way/466886028", "amenity": "fire_station", "building": "yes", "name": "Freiwillige Feuerwehr Hohenstein" }, "geometry": { "type": "Polygon", "coordinates": [ [ [ 13.9703948, 52.5668083 ], [ 13.9704295, 52.5667709 ], [ 13.9704534, 52.5667456 ], [ 13.9706158, 52.5668049 ], [ 13.9706255, 52.5667951 ], [ 13.9707275, 52.5668405 ], [ 13.970646, 52.5669053 ], [ 13.9705497, 52.5668632 ], [ 13.9703948, 52.5668083 ] ] ] } },
{ "type": "Feature", "id": "way/475484143", "properties": { "@id": "way/475484143", "addr:city": "Heckelberg-Brunow", "addr:housenumber": "10a", "addr:postcode": "16259", "addr:street": "Wölsickendorfer Straße", "addr:suburb": "Brunow", "amenity": "fire_station", "building": "yes" }, "geometry": { "type": "Polygon", "coordinates": [ [ [ 13.8759383, 52.7307278 ], [ 13.8758853, 52.730819 ], [ 13.8755446, 52.7307463 ], [ 13.8755976, 52.7306552 ], [ 13.8759383, 52.7307278 ] ] ] } },
{ "type": "Feature", "id": "way/475581505", "properties": { "@id": "way/475581505", "addr:city": "Heckelberg-Brunow", "addr:housenumber": "1A", "addr:street": "Tuchener Weg", "amenity": "fire_station", "building": "yes", "name": "Feuerwehr Heckelberg" }, "geometry": { "type": "Polygon", "coordinates": [ [ [ 13.833342, 52.73972 ], [ 13.8332293, 52.7395922 ], [ 13.8335033, 52.7395036 ], [ 13.8336548, 52.7396754 ], [ 13.8334865, 52.7397298 ], [ 13.8334477, 52.7396859 ], [ 13.833342, 52.73972 ] ] ] } },
{ "type": "Feature", "id": "way/476910326", "properties": { "@id": "way/476910326", "amenity": "fire_station", "name": "Freiwillige Feuerwehr Wartenberg / Malchow", "ref": "6330" }, "geometry": { "type": "Polygon", "coordinates": [ [ [ 13.5153905, 52.5748818 ], [ 13.5150668, 52.5743175 ], [ 13.5154982, 52.5742278 ], [ 13.5156358, 52.5741985 ], [ 13.5158955, 52.574672 ], [ 13.5159055, 52.5747359 ], [ 13.5159287, 52.5747329 ], [ 13.5159258, 52.5747543 ], [ 13.515911, 52.5748655 ], [ 13.5156311, 52.5749362 ], [ 13.5155234, 52.57496 ], [ 13.5154628, 52.5748632 ], [ 13.5153905, 52.5748818 ] ] ] } },
{ "type": "Feature", "id": "way/476997250", "properties": { "@id": "way/476997250", "amenity": "fire_station", "name": "Berliner Feuerwehr FW Pankow", "operator": "Berliner Feuerwehr", "operator:wikidata": "Q821517", "operator:wikipedia": "de:Berliner Feuerwehr", "ref": "2600" }, "geometry": { "type": "Polygon", "coordinates": [ [ [ 13.4288876, 52.5823549 ], [ 13.4289653, 52.5819146 ], [ 13.4289869, 52.5819152 ], [ 13.4293181, 52.5819301 ], [ 13.4294237, 52.5819387 ], [ 13.4295729, 52.5818988 ], [ 13.4295822, 52.5818963 ], [ 13.4296735, 52.5818719 ], [ 13.4298612, 52.5821181 ], [ 13.4298902, 52.5821702 ], [ 13.4297118, 52.5822316 ], [ 13.4294577, 52.5822799 ], [ 13.4290454, 52.5824402 ], [ 13.4288876, 52.5823549 ] ] ] } },
{ "type": "Feature", "id": "way/480342545", "properties": { "@id": "way/480342545", "addr:city": "Ahrensfelde", "addr:country": "DE", "addr:housenumber": "25", "addr:postcode": "16356", "addr:street": "Berliner Straße", "addr:suburb": "Blumberg", "amenity": "fire_station", "building": "fire_station", "name": "Freiwillige Feuerwehr Blumberg", "website": "https://www.freiwillige-feuerwehr-blumberg.de/" }, "geometry": { "type": "Polygon", "coordinates": [ [ [ 13.6184126, 52.602842 ], [ 13.6185472, 52.6026808 ], [ 13.6187117, 52.6027331 ], [ 13.6186047, 52.6028612 ], [ 13.618578, 52.6028931 ], [ 13.6184126, 52.602842 ] ] ] } },
{ "type": "Feature", "id": "way/490264199", "properties": { "@id": "way/490264199", "addr:city": "Sydower Fließ", "addr:housenumber": "63", "addr:postcode": "16230", "addr:street": "Dorfstraße", "amenity": "fire_station", "building": "yes", "name": "Freiwillige Feuerwehr Grüntal" }, "geometry": { "type": "Polygon", "coordinates": [ [ [ 13.7184205, 52.7418445 ], [ 13.7184877, 52.7417373 ], [ 13.7187139, 52.7417893 ], [ 13.7186467, 52.7418965 ], [ 13.7184205, 52.7418445 ] ] ] } },
{ "type": "Feature", "id": "way/508967063", "properties": { "@id": "way/508967063", "amenity": "fire_station", "name": "Freiwillige Feuerwehr Falkenberg", "ref": "6320" }, "geometry": { "type": "Polygon", "coordinates": [ [ [ 13.5458012, 52.5694955 ], [ 13.5469145, 52.5692437 ], [ 13.5469253, 52.5692613 ], [ 13.5471289, 52.5695917 ], [ 13.5462002, 52.5698032 ], [ 13.546015, 52.5698461 ], [ 13.5458012, 52.5694955 ] ] ] } },
{ "type": "Feature", "id": "way/538698096", "properties": { "@id": "way/538698096", "addr:city": "Bernau bei Berlin", "addr:housenumber": "5", "addr:postcode": "16321", "addr:street": "Krautstraße", "amenity": "fire_station", "building": "yes" }, "geometry": { "type": "Polygon", "coordinates": [ [ [ 13.5319209, 52.6793988 ], [ 13.5320178, 52.6793125 ], [ 13.5320319, 52.6793183 ], [ 13.5321633, 52.6792011 ], [ 13.5324115, 52.6793035 ], [ 13.5322797, 52.6794209 ], [ 13.5323408, 52.6794461 ], [ 13.5322441, 52.6795322 ], [ 13.5319209, 52.6793988 ] ] ] } },
{ "type": "Feature", "id": "way/607641626", "properties": { "@id": "way/607641626", "addr:city": "Wandlitz", "addr:housenumber": "9a", "addr:postcode": "16348", "addr:street": "Prendener Dorfstraße", "addr:suburb": "Prenden", "amenity": "fire_station", "building": "fire_station", "name": "Freiwillige Feuerwehr Prenden", "phone": "+4933396879800", "roof:shape": "gabled" }, "geometry": { "type": "Polygon", "coordinates": [ [ [ 13.5521656, 52.7903618 ], [ 13.5522934, 52.7902533 ], [ 13.5524095, 52.7903034 ], [ 13.5522817, 52.7904119 ], [ 13.5521656, 52.7903618 ] ] ] } },
{ "type": "Feature", "id": "way/633927141", "properties": { "@id": "way/633927141", "amenity": "fire_station", "name": "Freiwillige Feuerwehr Bernau b. Berlin - Löschzug Schönow" }, "geometry": { "type": "Polygon", "coordinates": [ [ [ 13.5319073, 52.6793975 ], [ 13.5321788, 52.6791545 ], [ 13.5330214, 52.6795341 ], [ 13.5328085, 52.6797666 ], [ 13.5319073, 52.6793975 ] ] ] } },
{ "type": "Feature", "id": "way/793184453", "properties": { "@id": "way/793184453", "addr:city": "Chorin", "addr:housenumber": "1a", "addr:postcode": "16230", "addr:street": "Am Mühlenberg", "addr:suburb": "Golzow (Barnim)", "amenity": "fire_station", "building": "yes", "name": "Freiwillige Feuerwehr Golzow" }, "geometry": { "type": "Polygon", "coordinates": [ [ [ 13.7996958, 52.9105584 ], [ 13.7997123, 52.9103837 ], [ 13.7997992, 52.9103565 ], [ 13.7999976, 52.9103633 ], [ 13.7999922, 52.9104205 ], [ 13.7999461, 52.910419 ], [ 13.7999321, 52.9105665 ], [ 13.7996958, 52.9105584 ] ] ] } },
{ "type": "Feature", "id": "way/867498615", "properties": { "@id": "way/867498615", "addr:city": "Berlin", "addr:country": "DE", "addr:housenumber": "9", "addr:postcode": "13129", "addr:street": "Alt-Blankenburg", "addr:suburb": "Blankenburg", "amenity": "fire_station", "contact:phone": "+49 30 47471851", "contact:website": "http://www.ff-berlin-blankenburg.de/", "name": "Freiwillige Feuerwehr Blankenburg", "ref": "6360", "wikidata": "Q107538349" }, "geometry": { "type": "Polygon", "coordinates": [ [ [ 13.4516159, 52.5931944 ], [ 13.4516207, 52.5931565 ], [ 13.4516457, 52.5929369 ], [ 13.4516474, 52.5929096 ], [ 13.4519309, 52.5929276 ], [ 13.4521043, 52.5929397 ], [ 13.4520848, 52.5930484 ], [ 13.4520678, 52.5931354 ], [ 13.4520677, 52.5931406 ], [ 13.4520923, 52.593154 ], [ 13.4520651, 52.5932063 ], [ 13.4516159, 52.5931944 ] ] ] } },
{ "type": "Feature", "id": "way/952801335", "properties": { "@id": "way/952801335", "addr:city": "Glienicke/Nordbahn", "addr:country": "DE", "addr:housenumber": "15", "addr:postcode": "16548", "addr:street": "Hattwichstraße", "amenity": "fire_station", "name": "Freiwillige Feuerwehr Glienicke" }, "geometry": { "type": "Polygon", "coordinates": [ [ [ 13.3135626, 52.6337331 ], [ 13.3140216, 52.6337647 ], [ 13.3140664, 52.6339479 ], [ 13.3142153, 52.634571 ], [ 13.3142547, 52.634607 ], [ 13.3140234, 52.6346764 ], [ 13.3136848, 52.6346538 ], [ 13.313627, 52.6346136 ], [ 13.3135891, 52.6345676 ], [ 13.3135997, 52.6345017 ], [ 13.3135929, 52.6345012 ], [ 13.3136003, 52.6344574 ], [ 13.3134422, 52.6344405 ], [ 13.3135626, 52.6337331 ] ] ] } },
{ "type": "Feature", "id": "way/1036767727", "properties": { "@id": "way/1036767727", "amenity": "fire_station", "name": "Feuerwehr Gerätelager", "operator": "Berliner Feuerwehr", "operator:wikidata": "Q821517", "operator:wikipedia": "de:Berliner Feuerwehr" }, "geometry": { "type": "Polygon", "coordinates": [ [ [ 13.4348025, 52.607856 ], [ 13.4346367, 52.6074629 ], [ 13.4346358, 52.6074224 ], [ 13.4346738, 52.6073985 ], [ 13.434961, 52.6073691 ], [ 13.4351384, 52.6073489 ], [ 13.4357751, 52.6072725 ], [ 13.4358992, 52.60768 ], [ 13.4351981, 52.6077807 ], [ 13.4348025, 52.607856 ] ] ] } },
{ "type": "Feature", "id": "way/1194953634", "properties": { "@id": "way/1194953634", "amenity": "fire_station", "building": "yes", "name": "Feuerwehr" }, "geometry": { "type": "Polygon", "coordinates": [ [ [ 14.0064924, 52.8358098 ], [ 14.0064463, 52.835768 ], [ 14.00645, 52.8357664 ], [ 14.0065534, 52.8357237 ], [ 14.0066571, 52.8358142 ], [ 14.0065527, 52.8358582 ], [ 14.0064924, 52.8358098 ] ] ] } },
{ "type": "Feature", "id": "way/1203310446", "properties": { "@id": "way/1203310446", "amenity": "fire_station", "building": "yes", "name": "Freiwillige Feuerwehr Beiersdorf" }, "geometry": { "type": "Polygon", "coordinates": [ [ [ 13.7811881, 52.6937794 ], [ 13.7811437, 52.6937353 ], [ 13.7811963, 52.6937158 ], [ 13.7811446, 52.6936645 ], [ 13.7812235, 52.6936353 ], [ 13.7813196, 52.6937308 ], [ 13.7811881, 52.6937794 ] ] ] } },
{ "type": "Feature", "id": "way/1225150577", "properties": { "@id": "way/1225150577", "amenity": "fire_station", "name": "Freiwillige Feuerwehr Heinersdorf", "phone": "+49 30 3876370 105", "ref": "6370" }, "geometry": { "type": "Polygon", "coordinates": [ [ [ 13.436721, 52.5715123 ], [ 13.4370818, 52.5713381 ], [ 13.4370566, 52.5713072 ], [ 13.4370009, 52.5712433 ], [ 13.4369492, 52.571193 ], [ 13.4370181, 52.5711737 ], [ 13.4375186, 52.5711963 ], [ 13.4374914, 52.5717006 ], [ 13.4374908, 52.5717468 ], [ 13.4371293, 52.5718651 ], [ 13.4370996, 52.5718751 ], [ 13.4370467, 52.5718919 ], [ 13.436721, 52.5715123 ] ] ] } },
{ "type": "Feature", "id": "way/1229751565", "properties": { "@id": "way/1229751565", "addr:city": "Berlin", "addr:country": "DE", "addr:housenumber": "35", "addr:postcode": "13158", "addr:street": "Edelweißstraße", "addr:suburb": "Wilhelmsruh", "amenity": "fire_station", "name": "Freiwillige Feuerwehr Wilhelmsruh", "ref": "2640", "wikidata": "Q107538370", "wikimedia_commons": "Category:Volunteer fire department in Berlin-Wilhelmsruh" }, "geometry": { "type": "Polygon", "coordinates": [ [ [ 13.3698342, 52.5857809 ], [ 13.3702002, 52.585679 ], [ 13.3707948, 52.5864201 ], [ 13.3703196, 52.5863969 ], [ 13.3698342, 52.5857809 ] ] ] } },
{ "type": "Feature", "id": "way/1230192976", "properties": { "@id": "way/1230192976", "addr:city": "Berlin", "addr:country": "DE", "addr:housenumber": "1a", "addr:postcode": "13187", "addr:street": "Stiftsweg", "addr:suburb": "Pankow", "amenity": "fire_station", "name": "Freiwillige Feuerwehr Pankow", "ref": "2650" }, "geometry": { "type": "Polygon", "coordinates": [ [ [ 13.4159539, 52.5732229 ], [ 13.4156504, 52.5733839 ], [ 13.4154719, 52.573361 ], [ 13.4153173, 52.5734454 ], [ 13.4150899, 52.573304 ], [ 13.415238, 52.573185 ], [ 13.4151186, 52.5731009 ], [ 13.415196, 52.5730015 ], [ 13.4153474, 52.5729235 ], [ 13.4154553, 52.5728672 ], [ 13.4159539, 52.5732229 ] ] ] } },
{ "type": "Feature", "id": "node/277120099", "properties": { "@id": "node/277120099", "amenity": "fire_station", "name": "Freiwillige Feuerwehr Wandlitz" }, "geometry": { "type": "Point", "coordinates": [ 13.4515478, 52.7538525 ] } },
{ "type": "Feature", "id": "node/339387524", "properties": { "@id": "node/339387524", "amenity": "fire_station", "name": "Freiwillige Feuerwehr Karow", "ref": "2720" }, "geometry": { "type": "Point", "coordinates": [ 13.4830902, 52.6111032 ] } },
{ "type": "Feature", "id": "node/394556313", "properties": { "@id": "node/394556313", "amenity": "fire_station", "website": "http://www.feuerwehr-schoenwalde.de" }, "geometry": { "type": "Point", "coordinates": [ 13.4394366, 52.6790371 ] } },
{ "type": "Feature", "id": "node/695586286", "properties": { "@id": "node/695586286", "amenity": "fire_station", "name": "Freiwillige Feuerwehr Liebenwalde" }, "geometry": { "type": "Point", "coordinates": [ 13.3963578, 52.8718143 ] } },
{ "type": "Feature", "id": "node/817071208", "properties": { "@id": "node/817071208", "amenity": "fire_station", "name": "Freiwilige Feuerwehr Zerpenschleuse" }, "geometry": { "type": "Point", "coordinates": [ 13.5266023, 52.851148 ] } },
{ "type": "Feature", "id": "node/840701345", "properties": { "@id": "node/840701345", "amenity": "fire_station", "name": "Freiwillige Feuerwehr Bernöwe" }, "geometry": { "type": "Point", "coordinates": [ 13.337254, 52.8139152 ] } },
{ "type": "Feature", "id": "node/944868560", "properties": { "@id": "node/944868560", "amenity": "fire_station", "name": "GZS" }, "geometry": { "type": "Point", "coordinates": [ 13.484559, 52.627041 ] } },
{ "type": "Feature", "id": "node/961413931", "properties": { "@id": "node/961413931", "addr:city": "Rüdnitz", "addr:country": "DE", "addr:housenumber": "2", "addr:postcode": "16321", "addr:street": "Ackerweg", "addr:suburb": "Rüdnitz", "amenity": "fire_station", "Ortswehrführer/-in": "Carsten Henke", "stellv. Ortswehrführer/-in": "Ingo Paasche", "Jugendwart/-in": "Ralf Menschner", "name": "Freiwillige Feuerwehr Rüdnitz", "operator": "Gemeinde Rüdnitz" }, "geometry": { "type": "Point", "coordinates": [ 13.6277077, 52.7219355 ] } },
{ "type": "Feature", "id": "node/1003091301", "properties": { "@id": "node/1003091301", "addr:city": "Altlandsberg", "addr:country": "DE", "addr:housenumber": "7", "addr:postcode": "15345", "addr:street": "Alte Schulstraße", "addr:suburb": "Wegendorf", "amenity": "fire_station", "entrance": "main", "image": "http://wiki.openstreetmap.org/wiki/File:Feuerwehr_Wegendorf.jpg", "name": "Freiwillige Feuerwehr Altlandsberg - Löschgruppe Wegendorf", "phone": "+49 33438 61814", "website": "http://feuerwehr.altlandsberg.de/index.php?page=kp_wegendorf" }, "geometry": { "type": "Point", "coordinates": [ 13.7547968, 52.6003508 ] } },
{ "type": "Feature", "id": "node/1172691771", "properties": { "@id": "node/1172691771", "addr:city": "Schorfheide", "addr:country": "DE", "addr:housenumber": "22", "addr:postcode": "16244", "addr:street": "Biesenthaler Straße", "amenity": "fire_station", "name": "Freiwillige Feuerwehr Finowfurt", "website": "http://www.feuerwehr-finowfurt.de/" }, "geometry": { "type": "Point", "coordinates": [ 13.6806889, 52.8413858 ] } },
{ "type": "Feature", "id": "node/1236593009", "properties": { "@id": "node/1236593009", "amenity": "fire_station" }, "geometry": { "type": "Point", "coordinates": [ 13.4072776, 52.8347946 ] } },
{ "type": "Feature", "id": "node/1236665155", "properties": { "@id": "node/1236665155", "amenity": "fire_station", "created_by": "iLOE 1.9", "name": "Freiwillige Feuerwehr Hammer" }, "geometry": { "type": "Point", "coordinates": [ 13.4431931, 52.8796534 ] } },
{ "type": "Feature", "id": "node/1244840582", "properties": { "@id": "node/1244840582", "addr:city": "Marienwerder", "addr:country": "DE", "addr:housenumber": "42", "addr:postcode": "16348", "addr:street": "Zerpenschleuser Straße", "addr:suburb": "Marienwerder", "amenity": "fire_station", "Ortswehrführer/-in": "Heiko Ruffert", "stellv. Ortswehrführer/-in": "Philipp Henck", "Jugendwart/-in": "Philipp Henck", "name": "Freiwillige Feuerwehr Marienwerder", "operator": "Gemeinde Marienwerder" }, "geometry": { "type": "Point", "coordinates": [ 13.5970257, 52.8418897 ] } },
{ "type": "Feature", "id": "node/1271558626", "properties": { "@id": "node/1271558626", "addr:city": "Werneuchen", "addr:housenumber": "41a", "addr:street": "Löhmer Dorfstraße", "amenity": "fire_station", "name": "Freiwillige Feuerwehr Löhme" }, "geometry": { "type": "Point", "coordinates": [ 13.673693, 52.628927 ] } },
{ "type": "Feature", "id": "node/1271558629", "properties": { "@id": "node/1271558629", "amenity": "fire_station", "name": "Freiwillige Feuerwehr Seefeld" }, "geometry": { "type": "Point", "coordinates": [ 13.6786091, 52.6220296 ] } },
{ "type": "Feature", "id": "node/1289506014", "properties": { "@id": "node/1289506014", "amenity": "fire_station", "name": "Freiwillige Feuerwehr Altlandsberg - Löschgruppe Buchholz" }, "geometry": { "type": "Point", "coordinates": [ 13.7895185, 52.5852358 ] } },
{ "type": "Feature", "id": "node/1450877655", "properties": { "@id": "node/1450877655", "addr:city": "Panketal", "addr:postcode": "16341", "addr:street": "Bucher Chaussee", "addr:suburb": "Schwanebeck", "amenity": "fire_station", "name": "Feuerwache Schwanebeck", "operator": "Freiwillige Feuerwehr Schwanebeck" }, "geometry": { "type": "Point", "coordinates": [ 13.5422425, 52.6254112 ] } },
{ "type": "Feature", "id": "node/1636840339", "properties": { "@id": "node/1636840339", "addr:city": "Britz", "addr:housenumber": "1", "addr:postcode": "16230", "addr:street": "Lindenallee", "amenity": "fire_station", "name": "Ortsfeuerwehr Britz", "operator": "Amt Britz-Chorin-Oderberg" }, "geometry": { "type": "Point", "coordinates": [ 13.8162347, 52.880281 ] } },
{ "type": "Feature", "id": "node/1637096553", "properties": { "@id": "node/1637096553", "amenity": "fire_station", "name": "Freiwillige Feuerwehr Eberswalde" }, "geometry": { "type": "Point", "coordinates": [ 13.8057449, 52.8372907 ] } },
{ "type": "Feature", "id": "node/1744693235", "properties": { "@id": "node/1744693235", "amenity": "fire_station" }, "geometry": { "type": "Point", "coordinates": [ 13.9288174, 52.8143391 ] } },
{ "type": "Feature", "id": "node/1757030205", "properties": { "@id": "node/1757030205", "addr:city": "Altlandsberg", "addr:housenumber": "4", "addr:postcode": "15345", "addr:street": "An der Babe", "addr:suburb": "Gielsdorf", "amenity": "fire_station", "name": "Freiwillige Feuerwehr Altlandsberg - Löschgruppe Gielsdorf" }, "geometry": { "type": "Point", "coordinates": [ 13.8715507, 52.6053567 ] } },
{ "type": "Feature", "id": "node/1944378300", "properties": { "@id": "node/1944378300", "addr:city": "Eberswalde", "addr:country": "DE", "addr:housenumber": "41a", "addr:postcode": "16227", "addr:street": "Eberswalder Straße", "amenity": "fire_station", "name": "Berufsfeuerwehr Eberswalde" }, "geometry": { "type": "Point", "coordinates": [ 13.7499387, 52.8388811 ] } },
{ "type": "Feature", "id": "node/1944383187", "properties": { "@id": "node/1944383187", "addr:city": "Eberswalde", "addr:country": "DE", "addr:housenumber": "41a", "addr:postcode": "16227", "addr:street": "Eberswalder Straße", "amenity": "fire_station", "name": "Freiwilige Feuerwehr Eberswalde Finow" }, "geometry": { "type": "Point", "coordinates": [ 13.7497482, 52.839161 ] } },
{ "type": "Feature", "id": "node/2145833667", "properties": { "@id": "node/2145833667", "amenity": "fire_station", "name": "Feuerwehr Herzsprung" }, "geometry": { "type": "Point", "coordinates": [ 13.9894297, 52.9759872 ] } },
{ "type": "Feature", "id": "node/2145880633", "properties": { "@id": "node/2145880633", "amenity": "fire_station" }, "geometry": { "type": "Point", "coordinates": [ 13.9211489, 52.93025 ] } },
{ "type": "Feature", "id": "node/2472635508", "properties": { "@id": "node/2472635508", "amenity": "fire_station" }, "geometry": { "type": "Point", "coordinates": [ 13.4466076, 52.6548354 ] } },
{ "type": "Feature", "id": "node/2475564462", "properties": { "@id": "node/2475564462", "amenity": "fire_station", "name": "Feuerwehr Clara-Zetkin-Siedlung" }, "geometry": { "type": "Point", "coordinates": [ 13.7221871, 52.8640826 ] } },
{ "type": "Feature", "id": "node/2500430693", "properties": { "@id": "node/2500430693", "addr:city": "Mühlenbecker Land", "addr:country": "DE", "addr:housenumber": "25", "addr:postcode": "16515", "addr:street": "Dorfstraße", "addr:suburb": "Zühlsdorf", "amenity": "fire_station", "name": "Feuerwehr Zühlsdorf" }, "geometry": { "type": "Point", "coordinates": [ 13.3896422, 52.7316356 ] } },
{ "type": "Feature", "id": "node/2990881589", "properties": { "@id": "node/2990881589", "addr:city": "Biesenthal", "addr:country": "DE", "addr:housenumber": "21", "addr:postcode": "16359", "addr:street": "Grüner Weg", "addr:suburb": "Biesenthal", "amenity": "fire_station", "Ortswehrführer/-in": "Thomas Brodde", "stellv. Ortswehrführer/-in": "Mirko Lieke / Herbert Blaudzun", "Jugendwart/-in": "Nick Hilgert", "name": "Freiwillige Feuerwehr Biesenthal", "operator": "Stadt Biesenthal", "website": "https://www.feuerwehr-biesenthal.eu/" }, "geometry": { "type": "Point", "coordinates": [ 13.6454561, 52.7669924 ] } },
{ "type": "Feature", "id": "node/3431432018", "properties": { "@id": "node/3431432018", "addr:city": "Mühlenbecker Land", "addr:housenumber": "1", "addr:postcode": "16567", "addr:street": "Am Anger", "addr:suburb": "Schönfließ", "amenity": "fire_station", "name": "Freiwillige Feuerwehr Schönfließ", "operator": "Gemeinde Mühlenbecker Land" }, "geometry": { "type": "Point", "coordinates": [ 13.3388101, 52.6572049 ] } },
{ "type": "Feature", "id": "node/3465963209", "properties": { "@id": "node/3465963209", "addr:city": "Schorfheide", "addr:postcode": "16244", "addr:street": "Werbelliner Dorfstraße", "amenity": "fire_station", "name": "Freiwillige Feuerwehr Werbellin", "operator": "Gemeinde Schorfheide" }, "geometry": { "type": "Point", "coordinates": [ 13.7021919, 52.8899752 ] } },
{ "type": "Feature", "id": "node/4177142284", "properties": { "@id": "node/4177142284", "addr:city": "Sydower Fließ", "addr:country": "DE", "addr:housenumber": "1", "addr:postcode": "16230", "addr:street": "Lindenstraße", "addr:suburb": "Tempelfelde", "amenity": "fire_station", "Ortswehrführer/-in": "Oliver Behrend", "stellv. Ortswehrführer/-in": "Heiko Schulz", "Jugendwart/-in": "Franziska Weigner", "name": "Freiwillige Feuerwehr Tempelfelde", "operator": "Gemeinde Sydower Fließ" }, "geometry": { "type": "Point", "coordinates": [ 13.7200278, 52.7089499 ] } },
{ "type": "Feature", "id": "node/4177188835", "properties": { "@id": "node/4177188835", "addr:city": "Breydin", "addr:country": "DE", "addr:housenumber": "10", "addr:postcode": "16230", "addr:street": "Kirchstraße", "addr:suburb": "Tuchen-Klobbicke", "amenity": "fire_station", "Ortswehrführer/-in": "Martin Seefeldt", "stellv. Ortswehrführer/-in": "Nadine Britzke", "Jugendwart/-in": "Kathleen Messal", "name": "Freiwillige Feuerwehr", "operator": "Gemeinde Breydin" }, "geometry": { "type": "Point", "coordinates": [ 13.7886296, 52.7543281 ] } },
{ "type": "Feature", "id": "node/4177229056", "properties": { "@id": "node/4177229056", "addr:city": "Breydin", "addr:country": "DE", "addr:housenumber": "20a", "addr:postcode": "16230", "addr:street": "Dorfstraße", "addr:suburb": "Trampe", "amenity": "fire_station", "Ortswehrführer/-in": "Martin Seefeldt", "stellv. Ortswehrführer/-in": "Nadine Britzke", "name": "Freiwillige Feuerwehr Trampe", "operator": "Gemeinde Breydin" }, "geometry": { "type": "Point", "coordinates": [ 13.8356369, 52.7799581 ] } },
{ "type": "Feature", "id": "node/4177257732", "properties": { "@id": "node/4177257732", "amenity": "fire_station" }, "geometry": { "type": "Point", "coordinates": [ 13.8916779, 52.8174323 ] } },
{ "type": "Feature", "id": "node/6053484406", "properties": { "@id": "node/6053484406", "amenity": "fire_station" }, "geometry": { "type": "Point", "coordinates": [ 13.3248657, 52.8586579 ] } },
{ "type": "Feature", "id": "node/6621423513", "properties": { "@id": "node/6621423513", "addr:city": "Berlin", "addr:country": "DE", "addr:housenumber": "55", "addr:postcode": "13437", "addr:street": "Roedernallee", "addr:suburb": "Reinickendorf", "amenity": "fire_station", "name": "Freiwillige Feuerwehr Wittenau", "ref": "2201" }, "geometry": { "type": "Point", "coordinates": [ 13.3410448, 52.5875384 ] } },
{ "type": "Feature", "id": "node/7590516094", "properties": { "@id": "node/7590516094", "addr:housenumber": "7", "addr:street": "Bernauer Straße", "amenity": "fire_station", "website": "https://www.wandlitz.de/verzeichnis/visitenkarte.php?mandat=30941" }, "geometry": { "type": "Point", "coordinates": [ 13.5644339, 52.7566369 ] } },
{ "type": "Feature", "id": "node/7995789743", "properties": { "@id": "node/7995789743", "amenity": "fire_station", "name": "Freiwillige Feuerwehr Joachimsthal", "phone": "+493336172120" }, "geometry": { "type": "Point", "coordinates": [ 13.7418505, 52.9761356 ] } },
{ "type": "Feature", "id": "node/8895164256", "properties": { "@id": "node/8895164256", "addr:housenumber": "1", "addr:street": "Krummenseer Weg", "amenity": "fire_station", "name": "Freiwillige Feuerwehr Mehrow", "wikidata": "Q107357121" }, "geometry": { "type": "Point", "coordinates": [ 13.6173027, 52.5714204 ] } },
{ "type": "Feature", "id": "node/9427681717", "properties": { "@id": "node/9427681717", "amenity": "fire_station", "name": "Freiwillige Feuerwehr Krewelin" }, "geometry": { "type": "Point", "coordinates": [ 13.3825546, 52.944836 ] } },
{ "type": "Feature", "id": "node/10722796135", "properties": { "@id": "node/10722796135", "amenity": "fire_station", "name": "Löschgruppe Lobetal", "website": "http://feuerwehr-bernau.de/ueber/standorte/lg-lobetal.php" }, "geometry": { "type": "Point", "coordinates": [ 13.5920145, 52.7284208 ] } },
{ "type": "Feature", "id": "node/10725838709", "properties": { "@id": "node/10725838709", "addr:city": "Bernau bei Berlin", "addr:housenumber": "1a", "addr:postcode": "16321", "addr:street": "Otto-Schmidt-Straße", "amenity": "fire_station", "name": "Freiwillige Feuerwehr Bernau bei Berlin - Löschzug Ladeburg", "operator": "Stadt Bernau bei Berlin", "website": "www.feuerwehr-bernau.de" }, "geometry": { "type": "Point", "coordinates": [ 13.5933694, 52.6999222 ] } },
{ "type": "Feature", "properties": { "id": null, "@id": null, "addr:city": "Sydower Fließ", "addr:country": "DE", "addr:housenumber": "63", "addr:postcode": "16230", "addr:street": "Dorfstraße", "addr:suburb": "Grüntal", "amenity": "fire_station", "barrier": null, "building": null, "Ortswehrführer/-in": "Oliver Behrend", "contact:phone": null, "contact:website": null, "created_by": null, "emergency": null, "entrance": null, "stellv. Ortswehrführer/-in": "Heiko Schulz", "Jugendwart/-in": "Saskia Schreiber", "email": null, "fax": null, "image": null, "name": "Freiwillige Feuerwehr Grüntal", "operator": "Gemeinde Sydower Fließ", "operator:wikidata": null, "operator:wikipedia": null, "phone": null, "ref": null, "roof:colour": null, "roof:height": null, "roof:levels": null, "roof:material": null, "roof:orientation": null, "roof:shape": null, "short_name": null, "source": null, "website": null, "wikidata": null, "wikimedia_commons": null }, "geometry": { "type": "Point", "coordinates": [ 13.71848773257538, 52.741846301836787 ] } },
{ "type": "Feature", "properties": { "id": null, "@id": null, "addr:city": "Biesenthal", "addr:country": "DE", "addr:housenumber": "44a", "addr:postcode": "16359", "addr:street": "Dorfstraße", "addr:suburb": "Danewitz", "amenity": "fire_station", "barrier": null, "building": null, "Ortswehrführer/-in": "Thomas Brodde", "contact:phone": null, "contact:website": null, "created_by": null, "emergency": null, "entrance": null, "stellv. Ortswehrführer/-in": "Mirko Lieke / Herbert Blaudzun", "Jugendwart/-in": "Nick Hilgert", "email": null, "fax": null, "image": null, "name": "Freiwillige Feuerwehr Danewitz", "operator": "Stadt Biesenthal", "operator:wikidata": null, "operator:wikipedia": null, "phone": null, "ref": null, "roof:colour": null, "roof:height": null, "roof:levels": null, "roof:material": null, "roof:orientation": null, "roof:shape": null, "short_name": null, "source": null, "website": null, "wikidata": null, "wikimedia_commons": null }, "geometry": { "type": "Point", "coordinates": [ 13.668136113688229, 52.73386780112309 ] } },
{ "type": "Feature", "properties": { "id": null, "@id": null, "addr:city": "Melchow", "addr:country": "DE", "addr:housenumber": "1a", "addr:postcode": "16230", "addr:street": "Alte Dorfstraße", "addr:suburb": "Melchow", "amenity": "fire_station", "barrier": null, "building": null, "Ortswehrführer/-in": "Andreas Beier", "contact:phone": "", "contact:website": "", "created_by": null, "emergency": null, "entrance": null, "stellv. Ortswehrführer/-in": "Christian Voß", "Jugendwart/-in": "Paul-André Buschmann", "email": null, "fax": null, "image": null, "name": "Freiwillige Feuerwehr Melchow", "operator": "Gemeinde Melchow", "operator:wikidata": null, "operator:wikipedia": null, "phone": null, "ref": null, "roof:colour": null, "roof:height": null, "roof:levels": null, "roof:material": null, "roof:orientation": null, "roof:shape": null, "short_name": null, "source": null, "website": null, "wikidata": null, "wikimedia_commons": null }, "geometry": { "type": "Point", "coordinates": [ 13.703039075658539, 52.774964760828972 ] } },
{ "type": "Feature", "properties": { "id": null, "@id": null, "addr:city": "Melchow", "addr:country": "DE", "addr:housenumber": "30A", "addr:postcode": "16230", "addr:street": "Dorfstraße", "addr:suburb": "Schönholz", "amenity": "fire_station", "barrier": null, "building": null, "Ortswehrführer/-in": "Andreas Beier", "contact:phone": null, "contact:website": null, "created_by": null, "emergency": null, "entrance": null, "stellv. Ortswehrführer/-in": "Christian Voß", "Jugendwart/-in": null, "email": null, "fax": null, "image": null, "name": "Freiwillige Feuerwehr Schönholz", "operator": "Gemeinde Melchow", "operator:wikidata": null, "operator:wikipedia": null, "phone": null, "ref": null, "roof:colour": null, "roof:height": null, "roof:levels": null, "roof:material": null, "roof:orientation": null, "roof:shape": null, "short_name": null, "source": null, "website": null, "wikidata": null, "wikimedia_commons": null }, "geometry": { "type": "Point", "coordinates": [ 13.760522351717672, 52.780387626297319 ] } },
{ "type": "Feature", "properties": { "id": null, "@id": null, "addr:city": "Marienwerder", "addr:country": "DE", "addr:housenumber": "29a", "addr:postcode": "16348", "addr:street": "Dorstraße", "addr:suburb": "Ruhlsdorf", "amenity": "fire_station", "barrier": null, "building": null, "Ortswehrführer/-in": "Heiko Ruffert", "contact:phone": null, "contact:website": null, "created_by": null, "emergency": null, "entrance": null, "stellv. Ortswehrführer/-in": "Philipp Henck", "Jugendwart/-in": "Philipp Henck", "email": null, "fax": null, "image": null, "name": "Freiwillige Feuerwehr Ruhlsdorf / Sophienstädt", "operator": "Gemeinde Marienwerder", "operator:wikidata": null, "operator:wikipedia": null, "phone": null, "ref": null, "roof:colour": null, "roof:height": null, "roof:levels": null, "roof:material": null, "roof:orientation": null, "roof:shape": null, "short_name": null, "source": null, "website": null, "wikidata": null, "wikimedia_commons": null }, "geometry": { "type": "Point", "coordinates": [ 13.561518633935348, 52.825888512659496 ] } }
]
}
